[{"OBJECT_NAME":"STARLINK-6182","OBJECT_ID":"2023-083C","EPOCH":"2026-03-09T09:47:51.413280","MEAN_MOTION":15.02534775,"ECCENTRICITY":0.00013505,"INCLINATION":43.0024,"RA_OF_ASC_NODE":83.6866,"ARG_OF_PERICENTER":261.6237,"MEAN_ANOMALY":98.4452,"EPHEMERIS_TYPE":0,"CLASSIFICATION_TYPE":"U","NORAD_CAT_ID":56878,"ELEMENT_SET_NO":999,"REV_AT_EPOCH":15162,"BSTAR":-7.617866e-6,"MEAN_MOTION_DOT":-3.07e-6,"MEAN_MOTION_DDOT":0},{"OBJECT_NAME":"CZ-6A DEB","OBJECT_ID":"2024-140DW","EPOCH":"2026-03-09T12:42:27.831456","MEAN_MOTION":14.74987574,"ECCENTRICITY":0.01550337,"INCLINATION":88.9082,"RA_OF_ASC_NODE":275.4322,"ARG_OF_PERICENTER":135.579,"MEAN_ANOMALY":225.799,"EPHEMERIS_TYPE":0,"CLASSIFICATION_TYPE":"U","NORAD_CAT_ID":60717,"ELEMENT_SET_NO":999,"REV_AT_EPOCH":8391,"BSTAR":0.0030954876,"MEAN_MOTION_DOT":0.00025382,"MEAN_MOTION_DDOT":0}]
